DIAMOND RED             
1 42783U 17036U   22189.80553306  .00007250  00000+0  26974-3 0  9997
2 42783  97.1983 229.8695 0008619 249.1843 110.8474 15.27756118280209
PEGASUS                 
1 42784U 17036V   22189.84129883  .00009411  00000+0  33382-3 0  9993
2 42784  97.1977 231.0829 0008325 244.4184 115.6197 15.29245078280280
DIAMOND GREEN           
1 42785U 17036W   22189.80428851  .00007660  00000+0  28519-3 0  9997
2 42785  97.1986 229.9333 0008422 250.6005 109.4325 15.27714903280275
DIAMOND BLUE            
1 42786U 17036X   22189.80344911  .00007680  00000+0  28611-3 0  9997
2 42786  97.1985 229.9242 0008464 250.9880 109.0443 15.27695130280271
NUDTSAT                 
1 42787U 17036Y   22189.95567424  .00012489  00000+0  37819-3 0  9993
2 42787  97.2004 235.4509 0007022 225.4999 134.5599 15.34278801280398
SUCHAI                  
1 42788U 17036Z   22189.68131288  .00012559  00000+0  42001-3 0  9996
2 42788  97.1986 232.6172 0007712 237.0535 122.9966 15.31091190280438
SKCUBE                  
1 42789U 17036AA  22189.68859204  .00010607  00000+0  36396-3 0  9994
2 42789  97.1983 232.0679 0007732 239.1339 120.9142 15.30300916280329
VZLUSAT-1               
1 42790U 17036AB  22189.57382509  .00017418  00000+0  52869-3 0  9993
2 42790  97.2009 235.0430 0006954 225.4307 134.6369 15.34130387280484
ROBUSTA-1B              
1 42792U 17036AD  22189.37561355  .00011429  00000+0  38564-3 0  9993
2 42792  97.1982 232.3412 0007306 239.5680 120.4840 15.30828641280320
CICERO 6                
1 42793U 17036AE  22189.82707329  .00006393  00000+0  23908-3 0  9997
2 42793  97.1962 230.4329 0007173 247.8322 112.2157 15.27640564280335
CORVUS BC2              
1 42846U 17042X   22189.86367687  .00000783  00000+0  80498-4 0  9991
2 42846  97.4211  45.9597 0007843 288.9814  71.0556 14.92938380271473
CORVUS BC1              
1 42847U 17042Y   22189.54065766  .00000999  00000+0  10099-3 0  9998
2 42847  97.4213  45.9646 0007515 289.1150  70.9256 14.93042456271435
MIRATA                  
1 43015U 17073C   22189.66132169  .00006780  00000+0  48859-3 0  9994
2 43015  97.6729  84.1808 0239781 111.2324 251.4684 14.84150546250418
MAKERSAT 0              
1 43016U 17073D   22189.64894073  .00004062  00000+0  30104-3 0  9997
2 43016  97.6745  83.7025 0246633 115.7326 246.9570 14.82425152250338
AEROCUBE 7B (OCSD B)    
1 43042U 17071F   22189.76585833  .00283736  40516-4  94247-3 0  9994
2 43042  51.6305 291.5002 0009192 323.7601  36.2781 15.89754174259078
AEROCUBE 7C (OCSD C)    
1 43043U 17071G   22189.53291657  .00232753  00000+0  92783-3 0  9993
2 43043  51.6284 295.1684 0007762 318.5492  41.4922 15.85381914258979
ASGARDIA 1              
1 43049U 17071N   22189.80589975  .00110462  00000+0  63727-3 0  9990
2 43049  51.6306 297.2241 0004780 313.4133  46.6469 15.77811948258963
PROPCUBE 2 (FAUNA)      
1 43052U 17071R   22189.69714401  .00331757  52887-4  96661-3 0  9995
2 43052  51.6224 285.8293 0009394 331.5829  28.4664 15.92264484259101
CORVUS BC3              
1 43118U 18004H   22189.72515827  .00006060  00000+0  22726-3 0  9992
2 43118  97.3618 262.1591 0007373 289.7156  70.3287 15.27582503249467
MICROMAS-2A             
1 43131U 18004W   22189.77626777  .00022504  00000+0  62179-3 0  9996
2 43131  97.3750 269.1157 0004530 261.6401  98.4330 15.37048647249858
SPACEBEE-4              
1 43139U 18004AE  22189.80102126  .00044019  00000+0  90008-3 0  9992
2 43139  97.3843 274.3453 0003967 232.2906 127.7984 15.46004305250141
SPACEBEE-3              
1 43140U 18004AF  22189.46885628  .00103490  00000+0  13749-2 0  9996
2 43140  97.3877 278.1063 0004721 211.6177 148.4795 15.57847934250335
SPACEBEE-2              
1 43141U 18004AG  22189.82443433  .00142323  00000+0  14565-2 0  9996
2 43141  97.3884 280.1751 0005915 212.1439 147.9460 15.64525361250488
SPACEBEE-1              
1 43142U 18004AH  22189.78351692  .00328490  00000+0  19464-2 0  9991
2 43142  97.3857 282.1950 0007988 224.7532 135.3090 15.77117671250594
CICERO 7                
1 43143U 18004AJ  22189.73022995  .00014897  00000+0  45355-3 0  9990
2 43143  97.3730 268.5096 0003704 278.9506  81.1317 15.34088910249839
GOMX-4B                 
1 43196U 18015E   22189.84196592  .00004367  00000+0  16581-3 0  9997
2 43196  97.5357 329.4276 0016437 347.0307  13.0506 15.27256902246421
GOMX-4A                 
1 43197U 18015F   22189.87446757  .00004298  00000+0  15482-3 0  9994
2 43197  97.5353 330.3151 0016055 346.2197 164.9474 15.29011855246490
AEROCUBE 12A            
1 43556U 18046C   22189.85819775  .00017802  00000+0  44906-3 0  9997
2 43556  51.6371  79.4714 0008088 111.7650 248.4196 15.39896378222611
AEROCUBE 12B            
1 43557U 18046D   22189.75770821  .00014160  00000+0  38428-3 0  9991
2 43557  51.6387  84.7293 0008160 107.3947 252.7929 15.37832627222483
SURFSAT                 
1 43614U 18070B   22189.80306493  .00036972  00000+0  51831-3 0  9996
2 43614  93.0294 107.8266 0006674 303.7977  56.2651 15.56620489214385
CP7 (DAVE)              
1 43615U 18070C   22189.76532965  .00032865  00000+0  48482-3 0  9992
2 43615  93.0280 107.6449 0007556 309.1562  50.9029 15.55241438214340
ELFIN-B                 
1 43616U 18070D   22189.74968555  .00109038  00000+0  86741-3 0  9996
2 43616  93.0181 108.9848 0002445 265.5310  94.5683 15.70887106214699
ELFIN-A                 
1 43617U 18070E   22189.84534069  .00116030  00000+0  81373-3 0  9993
2 43617  93.0249 110.4317 0002231 219.8609 140.2501 15.73860604214763
CUBEBEL-1 (BSUSAT-1)    
1 43666U 18083E   22189.81170259  .00005595  00000+0  23687-3 0  9992
2 43666  97.4188 218.2557 0011158 255.6002 218.6731 15.23528630204739
CICERO 10               
1 43690U 18088A   22189.82439336  .00006265  00000+0  24793-3 0  9993
2 43690  85.0368 302.1479 0015373  72.8391 287.4535 15.25117536203015
IRVINE01                
1 43693U 18088D   22189.80010575  .00032084  00000+0  82427-3 0  9990
2 43693  85.0290 296.3595 0011403  39.4981 320.7099 15.39080345203501
PROXIMA I               
1 43694U 18088E   22189.76171728  .00007029  00000+0  26470-3 0  9991
2 43694  85.0302 298.8283 0018044  41.7960 318.4659 15.26744952203220
PROXIMA II              
1 43696U 18088G   22189.76217279  .00007033  00000+0  26502-3 0  9996
2 43696  85.0304 298.8471 0018090  41.7197 318.5423 15.26722771203210
FACSAT-1                
1 43721U 18096C   22189.86753856  .00012169  00000+0  33872-3 0  9995
2 43721  97.3498 269.6733 0012319 342.7384 109.7017 15.36889668201268
CENTAURI-2              
1 43722U 18096D   22189.73754662  .00020641  00000+0  51158-3 0  9999
2 43722  97.3554 271.6365 0010955 337.7508  22.3262 15.40361442201354
INNOSAT-2               
1 43738U 18096V   22189.85996604  .00034163  00000+0  58839-3 0  9990
2 43738  97.3640 279.1727 0010738 320.5134 178.5258 15.50938840201820
SIRION PATHFINDER-2     
1 43759U 18099B   22189.77113310  .00000796  00000+0  75118-4 0  9997
2 43759  97.6193 255.9828 0013847 184.1238 175.9872 14.96414211196237
CORVUS BC4              
1 43767U 18099K   22189.80091581  .00001609  00000+0  14901-3 0  9991
2 43767  97.6153 254.4878 0011286 187.0699 173.0365 14.95814005196161
MOVE-II                 
1 43780U 18099Y   22189.72757394  .00003479  00000+0  30023-3 0  9998
2 43780  97.6230 256.6979 0012922 191.0089 169.0853 14.97844789196244
SPACEBEE-7              
1 43816U 18099BL  22189.71579350  .00002550  00000+0  22205-3 0  9993
2 43816  97.6245 257.4165 0013212 177.9836 182.1442 14.97731061195834
SPACEBEE-5              
1 43817U 18099BM  22189.66089927  .00008393  00000+0  65385-3 0  9991
2 43817  97.6377 260.3673 0007672 180.3718 179.7502 15.01437143195950
SPACEBEE-6              
1 43818U 18099BN  22189.72437674  .00004219  00000+0  35427-3 0  9992
2 43818  97.6281 258.3336 0013545 175.8562 184.2775 14.98790186196026
SHIELDS 1               
1 43850U 18104B   22189.85006911  .00002857  00000+0  11715-3 0  9995
2 43850  85.0279  38.0187 0013997 177.0578 183.0749 15.23690590197766
STF-1                   
1 43852U 18104D   22189.83210898  .00007475  00000+0  28029-3 0  9993
2 43852  85.0305  38.2866 0012202 188.4867 171.6174 15.26987055197807
ZACUBE-2                
1 43907U 18111AH  22189.87072123  .00005418  00000+0  19970-3 0  9993
2 43907  97.1881  75.4088 0020380   9.4160 120.8188 15.28019990196563
LUME 1                  
1 43908U 18111AJ  22189.56221463  .00009483  00000+0  32032-3 0  9993
2 43908  97.1894  76.7075 0018465   5.3122 354.8312 15.30706290196626
AOBA VELOX-IV           
1 43940U 19003J   22189.82882432  .00025135  00000+0  66038-3 0  9993
2 43940  97.1249 225.0549 0019097  71.9912 288.3413 15.38403248193411
MOVE-IIB                
1 44398U 19038N   22189.90299611  .00007564  00000+0  36324-3 0  9990
2 44398  97.6291 159.4479 0023464  55.8655 304.4803 15.18901031166291
SONATE                  
1 44400U 19038Q   22189.86073227  .00002865  00000+0  15702-3 0  9998
2 44400  97.6410 158.4617 0025160  60.8910 299.4837 15.14769947166177
LUCKY-7                 
1 44406U 19038W   22189.84616361  .00004731  00000+0  25014-3 0  9995
2 44406  97.6390 158.9738 0024364  59.3673 300.9957 15.15716319166204
BEESAT 9                
1 44412U 19038AC  22189.55913579  .00006612  00000+0  33514-3 0  9995
2 44412  97.6358 159.0019 0022099  63.9907 296.3598 15.17095659165895
JAISAT-1                
1 44419U 19038F   22189.86794358  .00007107  00000+0  35527-3 0  9994
2 44419  97.6361 160.1669 0020985  60.5701 299.7623 15.17575281166304
DUCHIFAT-3              
1 44854U 19089C   22189.81995183  .00002106  00000+0  16715-3 0  9999
2 44854  36.9685 333.6668 0008630  25.4220 127.4484 15.01185675141141
EYESAT-NANO             
1 44877U 19092E   22189.47671311  .00008350  00000+0  35937-3 0  9998
2 44877  97.4643  13.7008 0009679 283.5866  76.4292 15.22830046141561
